     2.100          NAVIGATION                              RINEX VERSION / TYPE
fic2rin                                 03/09/2012 00:23:44 PGM / RUN BY / DATE
                                                            END OF HEADER
12 12  3  8  1 59 44.0  .565978698432D-04  .216004991671D-11  .000000000000D+00
     .110000000000D+02  .502187500000D+02  .465697969618D-08 -.230085971625D+01
     .257976353168D-05  .391295028385D-02  .292062759399D-05  .515354777718D+04
     .352784000000D+06 -.540167093277D-07 -.179847693253D+01 -.987201929092D-07
     .978437315202D+00  .330843750000D+03 -.478039042759D-01 -.837177728956D-08
     .249296098469D-09  .100000000000D+01  .167800000000D+04  .000000000000D+00
     .240000000000D+01  .000000000000D+00 -.121071934700D-07  .110000000000D+02
     .345606000000D+06  .400000000000D+01
14 12  3  8  1 59 44.0  .196346081793D-03  .125055521494D-11  .000000000000D+00
     .170000000000D+02 -.832500000000D+02  .426874923911D-08  .249027269351D+00
    -.446662306786D-05  .614141707774D-02  .949949026108D-05  .515356480408D+04
     .352784000000D+06 -.223517417908D-07  .243206388387D+01  .558793544769D-07
     .979440913577D+00  .207406250000D+03 -.205342482006D+01 -.810140888477D-08
    -.620740142033D-09  .100000000000D+01  .167800000000D+04  .000000000000D+00
     .240000000000D+01  .000000000000D+00 -.884756445885D-08  .170000000000D+02
     .345606000000D+06  .400000000000D+01
16 12  3  8  1 59 44.0 -.226480420679D-03 -.159161572810D-11  .000000000000D+00
     .130000000000D+02  .531875000000D+02  .473769734411D-08  .164154234144D+01
     .303983688354D-05  .651131058112D-02  .296346843243D-05  .515362055206D+04
     .352784000000D+06  .596046447754D-07 -.178037351147D+01  .651925802231D-07
     .979299088058D+00  .330437500000D+03 -.718609323134D-01 -.846678124685D-08
     .165006873199D-09  .100000000000D+01  .167800000000D+04  .000000000000D+00
     .240000000000D+01  .000000000000D+00 -.977888703346D-08  .130000000000D+02
     .345606000000D+06  .400000000000D+01
27 12  3  8  1 59 44.0  .364473555237D-03  .397903932026D-11  .000000000000D+00
     .110000000000D+02  .420937500000D+02  .398516599816D-08  .221625504415D+00
     .209175050259D-05  .218840396265D-01  .132787972689D-04  .515376684189D+04
     .352784000000D+06 -.109896063805D-06 -.290725553507D+01 -.314787030220D-06
     .982279666611D+00  .143875000000D+03 -.111398473739D+01 -.805890711440D-08
     .144291724615D-09  .100000000000D+01  .167800000000D+04  .000000000000D+00
     .240000000000D+01  .000000000000D+00 -.419095158577D-08  .110000000000D+02
     .345606000000D+06  .400000000000D+01
30 12  3  8  1 59 44.0 -.739376991987D-04 -.153477230924D-10  .000000000000D+00
     .450000000000D+02  .735625000000D+02  .521736018114D-08  .507688682266D+00
     .398047268391D-05  .108945916872D-01  .402145087719D-05  .515361810875D+04
     .352784000000D+06 -.115483999252D-06 -.192182369693D+01 -.521540641785D-07
     .958600387428D+00  .304218750000D+03  .155534583453D+01 -.884536844510D-08
     .348943106310D-09  .100000000000D+01  .167800000000D+04  .000000000000D+00
     .485000000000D+01  .000000000000D+00 -.419095158577D-08  .450000000000D+02
     .345606000000D+06  .400000000000D+01
 1 12  3  8  2  0  0.0  .228030607104D-03  .784439180279D-11  .000000000000D+00
     .550000000000D+02  .259687500000D+02  .406802659249D-08 -.215154219143D+01
     .144727528095D-05  .574199249968D-03  .142920762300D-04  .515366772270D+04
     .352800000000D+06 -.465661287308D-07  .268143878206D+00 -.260770320892D-07
     .960675748847D+00  .104656250000D+03  .746095682771D+00 -.777818113532D-08
     .264296723305D-09  .100000000000D+01  .167800000000D+04  .000000000000D+00
     .240000000000D+01  .000000000000D+00  .838190317154D-08  .550000000000D+02
     .345606000000D+06  .400000000000D+01
 2 12  3  8  2  0  0.0  .381927471608D-03  .147792889038D-11  .000000000000D+00
     .860000000000D+02  .260937500000D+02  .475234081121D-08 -.675801695179D+00
     .133179128170D-05  .109920651885D-01  .125579535961D-04  .515366464806D+04
     .352800000000D+06  .294297933578D-06  .256155388894D+00  .931322574615D-08
     .939241349641D+00  .128843750000D+03 -.284601616482D+01 -.821105630917D-08
     .186793494985D-09  .100000000000D+01  .167800000000D+04  .000000000000D+00
     .240000000000D+01  .000000000000D+00 -.172294676304D-07  .860000000000D+02
     .345606000000D+06  .400000000000D+01
 3 12  3  8  2  0  0.0  .193808227777D-04  .511590769747D-11  .000000000000D+00
     .190000000000D+02 -.103687500000D+03  .567095050357D-08 -.533342189877D+00
    -.526756048203D-05  .150704679545D-01  .568293035030D-05  .515370475197D+04
     .352800000000D+06 -.707805156708D-07 -.906108066238D+00  .195577740669D-06
     .930580031971D+00  .252656250000D+03  .117318328132D+01 -.910573643333D-08
    -.609668252273D-09  .100000000000D+01  .167800000000D+04  .000000000000D+00
     .240000000000D+01  .000000000000D+00 -.419095158577D-08  .190000000000D+02
     .345606000000D+06  .400000000000D+01
 4 12  3  8  2  0  0.0  .116152688861D-03  .114823706099D-10  .000000000000D+00
     .310000000000D+02  .252812500000D+02  .466269421993D-08  .240516243985D+01
     .120699405670D-05  .100306493696D-01  .131316483021D-04  .515357578468D+04
     .352800000000D+06 -.335276126862D-07  .273149056383D+00 -.219792127609D-06
     .938295134227D+00  .115093750000D+03  .839105182042D+00 -.800533345427D-08
     .258225041824D-09  .100000000000D+01  .167800000000D+04  .000000000000D+00
     .240000000000D+01  .000000000000D+00 -.605359673500D-08  .310000000000D+02
     .345606000000D+06  .400000000000D+01
 5 12  3  8  2  0  0.0 -.291225034744D-03 -.432009983342D-11  .000000000000D+00
     .540000000000D+02  .514062500000D+02  .516307220554D-08  .125931823303D+01
     .275485217571D-05  .270396680571D-02  .358745455742D-05  .515361330414D+04
     .352800000000D+06  .130385160446D-07  .131911421954D+01  .353902578354D-07
     .951324703338D+00  .304812500000D+03  .290554172508D+00 -.863357390872D-08
     .327513642258D-09  .100000000000D+01  .167800000000D+04  .000000000000D+00
     .240000000000D+01  .000000000000D+00 -.102445483208D-07  .540000000000D+02
     .345606000000D+06  .400000000000D+01
 6 12  3  8  2  0  0.0  .317692756653D-04  .341060513165D-12  .000000000000D+00
     .590000000000D+02 -.116625000000D+03  .530593529922D-08  .138929713655D+01
    -.601448118687D-05  .711791473441D-02  .620447099209D-05  .515369820595D+04
     .352800000000D+06  .171363353729D-06 -.830113536006D+00  .800937414169D-07
     .937578694967D+00  .241531250000D+03 -.597292872514D+00 -.861464454881D-08
    -.727530304557D-09  .100000000000D+01  .167800000000D+04  .000000000000D+00
     .240000000000D+01  .000000000000D+00 -.512227416039D-08  .590000000000D+02
     .345606000000D+06  .400000000000D+01
 7 12  3  8  2  0  0.0  .626663677394D-04  .295585778076D-11  .000000000000D+00
     .380000000000D+02  .492812500000D+02  .398909473324D-08 -.216282013558D+01
     .247918069363D-05  .512921996415D-02  .135470181704D-04  .515362247086D+04
     .352800000000D+06  .558793544769D-08 -.285429794010D+01 -.117346644402D-06
     .976002113971D+00  .128937500000D+03 -.301305182488D+01 -.768639159763D-08
     .298583865788D-09  .100000000000D+01  .167800000000D+04  .000000000000D+00
     .240000000000D+01  .000000000000D+00 -.107102096081D-07  .380000000000D+02
     .345606000000D+06  .400000000000D+01
 8 12  3  8  2  0  0.0  .752508640289D-06  .113686837722D-12  .000000000000D+00
     .140000000000D+02  .646562500000D+02  .347014454545D-08 -.277819348913D+01
     .332295894623D-05  .121124114376D-01  .134967267513D-04  .515370436096D+04
     .352800000000D+06 -.182539224625D-06 -.277276105402D+01 -.968575477600D-07
     .998052081310D+00  .142031250000D+03 -.297778666022D+01 -.731316176540D-08
     .346085844436D-09  .100000000000D+01  .167800000000D+04  .000000000000D+00
     .240000000000D+01  .000000000000D+00 -.465661287308D-08  .140000000000D+02
     .345606000000D+06  .400000000000D+01
 9 12  3  8  2  0  0.0  .143297947943D-03  .250111042988D-11  .000000000000D+00
     .780000000000D+02  .657187500000D+02  .374122726570D-08 -.282980934099D+01
     .328011810780D-05  .172442222247D-01  .132471323013D-04  .515363410378D+04
     .352800000000D+06  .204890966415D-06 -.288060315284D+01  .100582838058D-06
     .984791150241D+00  .132968750000D+03  .160531878404D+01 -.731566186954D-08
     .286440502825D-09  .100000000000D+01  .167800000000D+04  .000000000000D+00
     .240000000000D+01  .000000000000D+00 -.558793544769D-08  .780000000000D+02
     .345606000000D+06  .400000000000D+01
10 12  3  8  2  0  0.0 -.314866192639D-04 -.136424205266D-11  .000000000000D+00
     .590000000000D+02  .516562500000D+02  .536772358723D-08  .162817538685D+01
     .259838998318D-05  .112168694614D-01  .355765223503D-05  .515367390251D+04
     .352800000000D+06 -.232830643654D-06  .134115055249D+01  .108033418655D-06
     .946204832384D+00  .304406250000D+03  .746134511543D+00 -.879965225512D-08
     .314298806093D-09  .100000000000D+01  .167800000000D+04  .000000000000D+00
     .240000000000D+01  .000000000000D+00 -.232830643654D-08  .590000000000D+02
     .345606000000D+06  .400000000000D+01
11 12  3  8  2  0  0.0 -.239470507950D-03 -.363797880709D-11  .000000000000D+00
     .104000000000D+03 -.297812500000D+02  .559523306392D-08 -.200912701547D+01
    -.155717134476D-05  .127734147245D-01  .139977782965D-04  .515368799019D+04
     .352800000000D+06  .186264514923D-06  .426104880407D-02 -.135973095894D-06
     .888598415839D+00  .674062500000D+02  .103069863285D+01 -.833999025121D-08
     .203579908492D-10  .100000000000D+01  .167800000000D+04  .000000000000D+00
     .240000000000D+01  .000000000000D+00 -.116415321827D-07  .104000000000D+03
     .345606000000D+06  .400000000000D+01
